IRIDIUM 135             
1 43070U 17083A   26203.31489818 -.00000022  00000+0 -15039-4 0  9995
2 43070  86.3985 307.3328 0002113  95.0111 265.1326 14.34217316449188
IRIDIUM 138             
1 43071U 17083B   26202.71235083  .00000095  00000+0  27024-4 0  9997
2 43071  86.4000 307.2852 0002067  95.8952 264.2480 14.34217525449080
IRIDIUM 116             
1 43072U 17083C   26203.23878765  .00000215  00000+0  69815-4 0  9994
2 43072  86.3985 307.3501 0002519  96.7667 263.3816 14.34218098449190
IRIDIUM 130             
1 43073U 17083D   26202.57915702  .00000365  00000+0  12336-3 0  9995
2 43073  86.3996 307.9045 0002355 100.3430 259.8032 14.34219347449042
IRIDIUM 151             
1 43074U 17083E   26203.25147201  .00000076  00000+0  19987-4 0  9992
2 43074  86.3988 307.4033 0002275  95.0264 265.1192 14.34218048449169
IRIDIUM 134             
1 43075U 17083F   26202.73137944 -.00000010  00000+0 -10597-4 0  9996
2 43075  86.3987 307.6294 0002144  96.5987 263.5453 14.34217461449051
IRIDIUM 137             
1 43076U 17083G   26203.23244524 -.00000002  00000+0 -77371-5 0  9991
2 43076  86.3989 307.5134 0002528  89.9205 270.2281 14.34217515449190
IRIDIUM 141             
1 43077U 17083H   26202.73772219  .00000223  00000+0  72739-4 0  9998
2 43077  86.3985 307.5487 0002161  94.3151 265.8292 14.34218354449128
IRIDIUM 153             
1 43078U 17083J   26203.17828004  .00000012  00000+0 -27447-5 0  9996
2 43078  86.3953 275.8421 0002027  96.1175 264.0251 14.34217556450295
IRIDIUM 131             
1 43079U 17083K   26202.72503682  .00000012  00000+0 -27593-5 0  9991
2 43079  86.3989 307.7422 0002075  93.1909 266.9524 14.34217624449058
IRIDIUM 144             
1 43249U 18030A   26203.18462291  .00000112  00000+0  32831-4 0  9994
2 43249  86.3951 275.7681 0002398  95.8103 264.3366 14.34217926435157
IRIDIUM 149             
1 43250U 18030B   26203.19096557  .00000008  00000+0 -42802-5 0  9990
2 43250  86.3950 275.7318 0002123  93.9838 266.1601 14.34217529435178
IRIDIUM 157             
1 43251U 18030C   26203.14022485  .00000067  00000+0  16689-4 0  9992
2 43251  86.3949 275.8070 0002252  94.7292 265.4161 14.34217998435149
IRIDIUM 140             
1 43252U 18030D   26203.15925282  .00000116  00000+0  34480-4 0  9995
2 43252  86.3950 275.8118 0002247  95.9422 264.2030 14.34217968435203
IRIDIUM 145             
1 43253U 18030E   26203.14656848  .00000027  00000+0  26509-5 0  9999
2 43253  86.3948 275.7889 0002584  96.6765 263.4725 14.34217495435136
IRIDIUM 146             
1 43254U 18030F   26203.19730915  .00000017  00000+0 -10485-5 0  9999
2 43254  86.3951 275.7798 0002245  95.2339 264.9113 14.34217369435155
IRIDIUM 148             
1 43255U 18030G   26203.16559550  .00000082  00000+0  22268-4 0  9993
2 43255  86.3949 275.8366 0002296  92.6618 267.4841 14.34218171435183
IRIDIUM 142             
1 43256U 18030H   26203.13388284  .00000164  00000+0  51467-4 0  9999
2 43256  86.3948 275.7380 0002437  95.5644 264.5830 14.34218228435141
IRIDIUM 150             
1 43257U 18030J   26203.17193864  .00000023  00000+0  11982-5 0  9995
2 43257  86.3952 275.8393 0002231  96.0229 264.1221 14.34217112435173
IRIDIUM 143             
1 43258U 18030K   26203.15291022  .00000042  00000+0  80599-5 0  9990
2 43258  86.3952 275.9413 0002347  95.9312 264.2151 14.34217921435101
IRIDIUM 161             
1 43478U 18047C   26203.11174479  .00000234  00000+0  63450-4 0  9993
2 43478  86.4454  73.8640 0002132  80.9443 279.1999 14.43278308430174
IRIDIUM 152             
1 43479U 18047D   26203.12562748 -.00000041  00000+0 -21630-4 0  9997
2 43479  86.3925  73.7192 0001942  83.9547 276.1870 14.34217391427495
IRIDIUM 147             
1 43480U 18047E   26203.13197063  .00000030  00000+0  36398-5 0  9998
2 43480  86.3932  73.7227 0002296  87.1748 272.9710 14.34217700427497
IRIDIUM 110             
1 43481U 18047F   26203.13831118  .00000202  00000+0  64935-4 0  9993
2 43481  86.3934  73.8130 0001991  78.8895 281.2524 14.34217989427489
IRIDIUM 162             
1 43482U 18047G   26203.10543690  .00000236  00000+0  64216-4 0  9995
2 43482  86.4453  73.7572 0002172  86.7132 273.4317 14.43281111430160
IRIDIUM 160             
1 43569U 18061A   26203.08414810  .00000120  00000+0  35764-4 0  9993
2 43569  86.3939  42.1990 0002195  86.8625 273.2822 14.34218249418371
IRIDIUM 166             
1 43570U 18061B   26203.03975169 -.00000027  00000+0 -16877-4 0  9991
2 43570  86.3932  42.1678 0002187  90.3469 269.7977 14.34217096418398
IRIDIUM 158             
1 43571U 18061C   26203.07780605  .00000189  00000+0  60593-4 0  9996
2 43571  86.3937  42.1615 0002107  89.3375 270.8062 14.34218513418361
IRIDIUM 165             
1 43572U 18061D   26203.10317714  .00000136  00000+0  41441-4 0  9991
2 43572  86.3942  42.1981 0002258  90.3288 269.8166 14.34218033418399
IRIDIUM 155             
1 43573U 18061E   26203.06512058  .00000097  00000+0  27643-4 0  9999
2 43573  86.3935  42.0813 0002172  90.7527 269.3918 14.34218215418358
