OBJECT_NAME,OBJECT_ID,EPOCH,MEAN_MOTION,ECCENTRICITY,INCLINATION,RA_OF_ASC_NODE,ARG_OF_PERICENTER,MEAN_ANOMALY,EPHEMERIS_TYPE,CLASSIFICATION_TYPE,NORAD_CAT_ID,ELEMENT_SET_NO,REV_AT_EPOCH,BSTAR,MEAN_MOTION_DOT,MEAN_MOTION_DDOT
IRIDIUM 135,2017-083A,2026-07-22T07:33:27.202752,14.34217316,.00021131,86.3985,307.3328,95.0111,265.1326,0,U,43070,999,44918,-.15038763E-4,-.22E-6,0
IRIDIUM 138,2017-083B,2026-07-21T17:05:47.111712,14.34217525,.00020677,86.4000,307.2852,95.8952,264.2480,0,U,43071,999,44908,.27024112E-4,.95E-6,0
IRIDIUM 116,2017-083C,2026-07-22T05:43:51.252960,14.34218098,.00025198,86.3985,307.3501,96.7667,263.3816,0,U,43072,999,44919,.69815154E-4,.215E-5,0
IRIDIUM 130,2017-083D,2026-07-21T13:53:59.166528,14.34219347,.0002355,86.3996,307.9045,100.3430,259.8032,0,U,43073,999,44904,.12336499E-3,.365E-5,0
IRIDIUM 151,2017-083E,2026-07-22T06:02:07.181664,14.34218048,.00022754,86.3988,307.4033,95.0264,265.1192,0,U,43074,999,44916,.19986563E-4,.76E-6,0
IRIDIUM 134,2017-083F,2026-07-21T17:33:11.183616,14.34217461,.00021446,86.3987,307.6294,96.5987,263.5453,0,U,43075,999,44905,-.10597372E-4,-.1E-6,0
IRIDIUM 137,2017-083G,2026-07-22T05:34:43.268736,14.34217515,.00025283,86.3989,307.5134,89.9205,270.2281,0,U,43076,999,44919,-.7737082E-5,-.2E-7,0
IRIDIUM 141,2017-083H,2026-07-21T17:42:19.197216,14.34218354,.00021613,86.3985,307.5487,94.3151,265.8292,0,U,43077,999,44912,.72738695E-4,.223E-5,0
IRIDIUM 153,2017-083J,2026-07-22T04:16:43.395456,14.34217556,.00020273,86.3953,275.8421,96.1175,264.0251,0,U,43078,999,45029,-.2744746E-5,.12E-6,0
IRIDIUM 131,2017-083K,2026-07-21T17:24:03.181248,14.34217624,.00020752,86.3989,307.7422,93.1909,266.9524,0,U,43079,999,44905,-.2759334E-5,.12E-6,0
IRIDIUM 144,2018-030A,2026-07-22T04:25:51.419424,14.34217926,.00023983,86.3951,275.7681,95.8103,264.3366,0,U,43249,999,43515,.32830625E-4,.112E-5,0
IRIDIUM 149,2018-030B,2026-07-22T04:34:59.425248,14.34217529,.00021233,86.3950,275.7318,93.9838,266.1601,0,U,43250,999,43517,-.4280198E-5,.8E-7,0
IRIDIUM 157,2018-030C,2026-07-22T03:21:55.427040,14.34217998,.00022523,86.3949,275.8070,94.7292,265.4161,0,U,43251,999,43514,.16688517E-4,.67E-6,0
IRIDIUM 140,2018-030D,2026-07-22T03:49:19.443648,14.34217968,.00022477,86.3950,275.8118,95.9422,264.2030,0,U,43252,999,43520,.34479929E-4,.116E-5,0
IRIDIUM 145,2018-030E,2026-07-22T03:31:03.516672,14.34217495,.00025844,86.3948,275.7889,96.6765,263.4725,0,U,43253,999,43513,.2650873E-5,.27E-6,0
IRIDIUM 146,2018-030F,2026-07-22T04:44:07.510560,14.34217369,.00022459,86.3951,275.7798,95.2339,264.9113,0,U,43254,999,43515,-.1048509E-5,.17E-6,0
IRIDIUM 148,2018-030G,2026-07-22T03:58:27.451200,14.34218171,.00022968,86.3949,275.8366,92.6618,267.4841,0,U,43255,999,43518,.22268394E-4,.82E-6,0
IRIDIUM 142,2018-030H,2026-07-22T03:12:47.477376,14.34218228,.00024379,86.3948,275.7380,95.5644,264.5830,0,U,43256,999,43514,.51467044E-4,.164E-5,0
IRIDIUM 150,2018-030J,2026-07-22T04:07:35.498496,14.34217112,.00022313,86.3952,275.8393,96.0229,264.1221,0,U,43257,999,43517,.119821E-5,.23E-6,0
IRIDIUM 143,2018-030K,2026-07-22T03:40:11.443008,14.34217921,.00023479,86.3952,275.9413,95.9312,264.2151,0,U,43258,999,43510,.805991E-5,.42E-6,0
IRIDIUM 161,2018-047C,2026-07-22T02:40:54.749856,14.43278308,.00021323,86.4454,73.8640,80.9443,279.1999,0,U,43478,999,43017,.63449872E-4,.234E-5,0
IRIDIUM 152,2018-047D,2026-07-22T03:00:54.214272,14.34217391,.00019421,86.3925,73.7192,83.9547,276.1870,0,U,43479,999,42749,-.21629934E-4,-.41E-6,0
IRIDIUM 147,2018-047E,2026-07-22T03:10:02.262432,14.34217700,.0002296,86.3932,73.7227,87.1748,272.9710,0,U,43480,999,42749,.3639811E-5,.3E-6,0
IRIDIUM 110,2018-047F,2026-07-22T03:19:10.085952,14.34217989,.0001991,86.3934,73.8130,78.8895,281.2524,0,U,43481,999,42748,.64935391E-4,.202E-5,0
IRIDIUM 162,2018-047G,2026-07-22T02:31:49.748160,14.43281111,.00021722,86.4453,73.7572,86.7132,273.4317,0,U,43482,999,43016,.64216252E-4,.236E-5,0
IRIDIUM 160,2018-061A,2026-07-22T02:01:10.395840,14.34218249,.0002195,86.3939,42.1990,86.8625,273.2822,0,U,43569,999,41837,.35764339E-4,.12E-5,0
IRIDIUM 166,2018-061B,2026-07-22T00:57:14.546016,14.34217096,.00021873,86.3932,42.1678,90.3469,269.7977,0,U,43570,999,41839,-.16877194E-4,-.27E-6,0
IRIDIUM 158,2018-061C,2026-07-22T01:52:02.442720,14.34218513,.00021075,86.3937,42.1615,89.3375,270.8062,0,U,43571,999,41836,.60593386E-4,.189E-5,0
IRIDIUM 165,2018-061D,2026-07-22T02:28:34.504896,14.34218033,.00022588,86.3942,42.1981,90.3288,269.8166,0,U,43572,999,41839,.41441053E-4,.136E-5,0
IRIDIUM 155,2018-061E,2026-07-22T01:33:46.418112,14.34218215,.00021729,86.3935,42.0813,90.7527,269.3918,0,U,43573,999,41835,.27642773E-4,.97E-6,0
